start=new Date('2022-06-10T00:00:00.000Z').valueOf();
sats=[{"DECAY_DATE":null,"PERIAPSIS":"570.044","RA_OF_ASC_NODE":"146.1779","MEAN_MOTION":"14.98333421","GP_ID":"205783597","COUNTRY_CODE":"US","RCS_SIZE":"LARGE","PERIOD":"96.107","OBJECT_TYPE":"PAYLOAD","ELEMENT_SET_NO":"999","TLE_LINE2":"2 49165  69.9991 146.1779 0002883 273.3566  86.7264 14.98333421 42117","REF_FRAME":"TEME","NORAD_CAT_ID":"49165","INCLINATION":"69.9991","REV_AT_EPOCH":"4211","LAUNCH_DATE":"2021-09-14","BSTAR":"0.00006303700000","EPHEMERIS_TYPE":"0","OBJECT_ID":"2021-082AM","ARG_OF_PERICENTER":"273.3566","MEAN_MOTION_DDOT":"0.0000000000000","MEAN_MOTION_DOT":"0.00000659","FILE":"3489040","MEAN_ELEMENT_THEORY":"SGP4","CLASSIFICATION_TYPE":"U","TLE_LINE1":"1 49165U 21082AM  22160.68929291  .00000659  00000-0  63037-4 0  9998","TIME_SYSTEM":"UTC","ECCENTRICITY":"0.00028830","SITE":"AFWTR","EPOCH":"2022-06-09T16:32:34.907424","APOAPSIS":"574.051","MEAN_ANOMALY":"86.7264","CENTER_NAME":"EARTH","OBJECT_NAME":"STARLINK-3052","SEMIMAJOR_AXIS":"6950.182"},{"EPHEMERIS_TYPE":"0","BSTAR":"-0.00003065800000","OBJECT_ID":"2021-082AN","ARG_OF_PERICENTER":"264.2707","LAUNCH_DATE":"2021-09-14","TLE_LINE2":"2 49166  69.9986 125.2886 0002906 264.2707  95.8120 14.96720261 42641","NORAD_CAT_ID":"49166","REF_FRAME":"TEME","REV_AT_EPOCH":"4264","INCLINATION":"69.9986","PERIOD":"96.210","OBJECT_TYPE":"PAYLOAD","ELEMENT_SET_NO":"999","COUNTRY_CODE":"US","GP_ID":"205782345","MEAN_MOTION":"14.96720261","RCS_SIZE":"LARGE","PERIAPSIS":"575.019","DECAY_DATE":null,"RA_OF_ASC_NODE":"125.2886","SEMIMAJOR_AXIS":"6955.175","APOAPSIS":"579.062","MEAN_ANOMALY":"95.8120","CENTER_NAME":"EARTH","OBJECT_NAME":"STARLINK-3089","SITE":"AFWTR","ECCENTRICITY":"0.00029060","EPOCH":"2022-06-09T20:15:54.765504","TIME_SYSTEM":"UTC","CLASSIFICATION_TYPE":"U","TLE_LINE1":"1 49166U 21082AN  22160.84438386 -.00000443  00000-0 -30658-4 0  9993","MEAN_ELEMENT_THEORY":"SGP4","FILE":"3489040","MEAN_MOTION_DOT":"-0.00000443","MEAN_MOTION_DDOT":"0.0000000000000"},{"DECAY_DATE":null,"PERIAPSIS":"569.822","RA_OF_ASC_NODE":"146.1967","COUNTRY_CODE":"US","GP_ID":"205782595","MEAN_MOTION":"14.98346889","RCS_SIZE":"LARGE","PERIOD":"96.106","OBJECT_TYPE":"PAYLOAD","ELEMENT_SET_NO":"999","TLE_LINE2":"2 49167  69.9989 146.1967 0003142 269.1694  90.9105 14.98346889 42112","NORAD_CAT_ID":"49167","REF_FRAME":"TEME","INCLINATION":"69.9989","REV_AT_EPOCH":"4211","LAUNCH_DATE":"2021-09-14","BSTAR":"-0.00001974200000","EPHEMERIS_TYPE":"0","OBJECT_ID":"2021-082AP","ARG_OF_PERICENTER":"269.1694","MEAN_MOTION_DDOT":"0.0000000000000","MEAN_MOTION_DOT":"-0.00000329","FILE":"3489040","MEAN_ELEMENT_THEORY":"SGP4","CLASSIFICATION_TYPE":"U","TLE_LINE1":"1 49167U 21082AP  22160.68452048 -.00000329  00000-0 -19742-4 0  9991","TIME_SYSTEM":"UTC","SITE":"AFWTR","ECCENTRICITY":"0.00031420","EPOCH":"2022-06-09T16:25:42.569472","APOAPSIS":"574.189","MEAN_ANOMALY":"90.9105","CENTER_NAME":"EARTH","OBJECT_NAME":"STARLINK-3054","SEMIMAJOR_AXIS":"6950.141"},{"DECAY_DATE":null,"PERIAPSIS":"574.924","RA_OF_ASC_NODE":"125.8357","RCS_SIZE":"LARGE","GP_ID":"205783347","COUNTRY_CODE":"US","MEAN_MOTION":"14.96716691","OBJECT_TYPE":"PAYLOAD","PERIOD":"96.211","ELEMENT_SET_NO":"999","NORAD_CAT_ID":"49168","REF_FRAME":"TEME","TLE_LINE2":"2 49168  69.9990 125.8357 0003059 265.7048  94.3760 14.96716691 42614","INCLINATION":"69.9990","REV_AT_EPOCH":"4261","LAUNCH_DATE":"2021-09-14","ARG_OF_PERICENTER":"265.7048","OBJECT_ID":"2021-082AQ","BSTAR":"-0.00002706500000","EPHEMERIS_TYPE":"0","MEAN_MOTION_DDOT":"0.0000000000000","MEAN_MOTION_DOT":"-0.00000401","FILE":"3489040","MEAN_ELEMENT_THEORY":"SGP4","CLASSIFICATION_TYPE":"U","TLE_LINE1":"1 49168U 21082AQ  22160.62928093 -.00000401  00000-0 -27065-4 0  9992","TIME_SYSTEM":"UTC","ECCENTRICITY":"0.00030590","SITE":"AFWTR","EPOCH":"2022-06-09T15:06:09.872352","APOAPSIS":"579.179","MEAN_ANOMALY":"94.3760","OBJECT_NAME":"STARLINK-3101","CENTER_NAME":"EARTH","SEMIMAJOR_AXIS":"6955.186"},{"REV_AT_EPOCH":"4141","INCLINATION":"69.9991","TLE_LINE2":"2 49169  69.9991 125.8223 0002809 264.3870  95.6968 14.96714164 41412","NORAD_CAT_ID":"49169","REF_FRAME":"TEME","ELEMENT_SET_NO":"999","PERIOD":"96.211","OBJECT_TYPE":"PAYLOAD","MEAN_MOTION":"14.96714164","GP_ID":"205783097","COUNTRY_CODE":"US","RCS_SIZE":"LARGE","RA_OF_ASC_NODE":"125.8223","DECAY_DATE":null,"PERIAPSIS":"575.106","BSTAR":"0.00011075000000","EPHEMERIS_TYPE":"0","OBJECT_ID":"2021-082AR","ARG_OF_PERICENTER":"264.3870","LAUNCH_DATE":"2021-09-14","TLE_LINE1":"1 49169U 21082AR  22160.63414214  .00001176  00000-0  11075-3 0  9990","CLASSIFICATION_TYPE":"U","MEAN_ELEMENT_THEORY":"SGP4","FILE":"3489040","MEAN_MOTION_DOT":"0.00001176","MEAN_MOTION_DDOT":"0.0000000000000","SEMIMAJOR_AXIS":"6955.194","CENTER_NAME":"EARTH","OBJECT_NAME":"STARLINK-3046","MEAN_ANOMALY":"95.6968","APOAPSIS":"579.013","EPOCH":"2022-06-09T15:13:09.880896","SITE":"AFWTR","ECCENTRICITY":"0.00028090","TIME_SYSTEM":"UTC"},{"RCS_SIZE":"LARGE","GP_ID":"205781845","MEAN_MOTION":"14.98338651","COUNTRY_CODE":"US","RA_OF_ASC_NODE":"146.2566","PERIAPSIS":"569.699","DECAY_DATE":null,"INCLINATION":"69.9977","REV_AT_EPOCH":"4091","REF_FRAME":"TEME","NORAD_CAT_ID":"49170","TLE_LINE2":"2 49170  69.9977 146.2566 0003356 271.5061  88.5714 14.98338651 40914","ELEMENT_SET_NO":"999","OBJECT_TYPE":"PAYLOAD","PERIOD":"96.106","ARG_OF_PERICENTER":"271.5061","BSTAR":"0.00010128000000","EPHEMERIS_TYPE":"0","OBJECT_ID":"2021-082AS","LAUNCH_DATE":"2021-09-14","MEAN_MOTION_DOT":"0.00001116","MEAN_MOTION_DDOT":"0.0000000000000","TLE_LINE1":"1 49170U 21082AS  22160.65864540  .00001116  00000-0  10128-3 0  9997","CLASSIFICATION_TYPE":"U","MEAN_ELEMENT_THEORY":"SGP4","FILE":"3489040","EPOCH":"2022-06-09T15:48:26.962560","ECCENTRICITY":"0.00033560","SITE":"AFWTR","TIME_SYSTEM":"UTC","SEMIMAJOR_AXIS":"6950.166","OBJECT_NAME":"STARLINK-3074","CENTER_NAME":"EARTH","APOAPSIS":"574.364","MEAN_ANOMALY":"88.5714"},{"LAUNCH_DATE":"2021-09-14","ARG_OF_PERICENTER":"275.9132","EPHEMERIS_TYPE":"0","BSTAR":"0.00007104300000","OBJECT_ID":"2021-082AT","ELEMENT_SET_NO":"999","OBJECT_TYPE":"PAYLOAD","PERIOD":"96.107","INCLINATION":"69.9980","REV_AT_EPOCH":"4210","REF_FRAME":"TEME","NORAD_CAT_ID":"49171","TLE_LINE2":"2 49171  69.9980 145.7105 0002981 275.9132  84.1687 14.98322916 42103","RA_OF_ASC_NODE":"145.7105","PERIAPSIS":"570.008","DECAY_DATE":null,"RCS_SIZE":"LARGE","GP_ID":"205782095","MEAN_MOTION":"14.98322916","COUNTRY_CODE":"US","OBJECT_NAME":"STARLINK-3107","CENTER_NAME":"EARTH","MEAN_ANOMALY":"84.1687","APOAPSIS":"574.152","SEMIMAJOR_AXIS":"6950.215","TIME_SYSTEM":"UTC","EPOCH":"2022-06-09T21:04:19.421184","ECCENTRICITY":"0.00029810","SITE":"AFWTR","MEAN_ELEMENT_THEORY":"SGP4","FILE":"3489040","TLE_LINE1":"1 49171U 21082AT  22160.87800256  .00000755  00000-0  71043-4 0  9998","CLASSIFICATION_TYPE":"U","MEAN_MOTION_DDOT":"0.0000000000000","MEAN_MOTION_DOT":"0.00000755"},{"MEAN_ANOMALY":"89.7471","APOAPSIS":"579.090","CENTER_NAME":"EARTH","OBJECT_NAME":"STARLINK-3091","SEMIMAJOR_AXIS":"6955.178","TIME_SYSTEM":"UTC","ECCENTRICITY":"0.00029440","SITE":"AFWTR","EPOCH":"2022-06-09T09:41:30.928416","FILE":"3488652","MEAN_ELEMENT_THEORY":"SGP4","CLASSIFICATION_TYPE":"U","TLE_LINE1":"1 49172U 21082AU  22160.40383019 -.00000198  00000-0 -92725-5 0  9995","MEAN_MOTION_DDOT":"0.0000000000000","MEAN_MOTION_DOT":"-0.00000198","LAUNCH_DATE":"2021-09-14","EPHEMERIS_TYPE":"0","BSTAR":"-0.00000927250000","OBJECT_ID":"2021-082AU","ARG_OF_PERICENTER":"270.3350","PERIOD":"96.210","OBJECT_TYPE":"PAYLOAD","ELEMENT_SET_NO":"999","TLE_LINE2":"2 49172  69.9987 126.4093 0002944 270.3350  89.7471 14.96719533 41376","NORAD_CAT_ID":"49172","REF_FRAME":"TEME","INCLINATION":"69.9987","REV_AT_EPOCH":"4137","DECAY_DATE":null,"PERIAPSIS":"574.995","RA_OF_ASC_NODE":"126.4093","GP_ID":"205750292","COUNTRY_CODE":"US","MEAN_MOTION":"14.96719533","RCS_SIZE":"LARGE"},{"REV_AT_EPOCH":"4144","INCLINATION":"69.9984","TLE_LINE2":"2 49173  69.9984 125.3428 0002939 273.8432  86.2390 14.96720632 41449","REF_FRAME":"TEME","NORAD_CAT_ID":"49173","ELEMENT_SET_NO":"999","PERIOD":"96.210","OBJECT_TYPE":"PAYLOAD","GP_ID":"205783598","MEAN_MOTION":"14.96720632","COUNTRY_CODE":"US","RCS_SIZE":"LARGE","RA_OF_ASC_NODE":"125.3428","PERIAPSIS":"574.995","DECAY_DATE":null,"OBJECT_ID":"2021-082AV","BSTAR":"0.00011134000000","EPHEMERIS_TYPE":"0","ARG_OF_PERICENTER":"273.8432","LAUNCH_DATE":"2021-09-14","TLE_LINE1":"1 49173U 21082AV  22160.82604011  .00001183  00000-0  11134-3 0  9996","CLASSIFICATION_TYPE":"U","MEAN_ELEMENT_THEORY":"SGP4","FILE":"3489040","MEAN_MOTION_DOT":"0.00001183","MEAN_MOTION_DDOT":"0.0000000000000","SEMIMAJOR_AXIS":"6955.174","CENTER_NAME":"EARTH","OBJECT_NAME":"STARLINK-3045","MEAN_ANOMALY":"86.2390","APOAPSIS":"579.083","EPOCH":"2022-06-09T19:49:29.865504","SITE":"AFWTR","ECCENTRICITY":"0.00029390","TIME_SYSTEM":"UTC"},{"MEAN_MOTION_DDOT":"0.0000000000000","MEAN_MOTION_DOT":"-0.00001018","MEAN_ELEMENT_THEORY":"SGP4","FILE":"3489040","CLASSIFICATION_TYPE":"U","TLE_LINE1":"1 49174U 21082AW  22160.88964585 -.00001018  00000-0 -80934-4 0  9992","TIME_SYSTEM":"UTC","SITE":"AFWTR","ECCENTRICITY":"0.00029400","EPOCH":"2022-06-09T21:21:05.401440","MEAN_ANOMALY":"96.0375","APOAPSIS":"579.116","CENTER_NAME":"EARTH","OBJECT_NAME":"STARLINK-3047","SEMIMAJOR_AXIS":"6955.206","PERIAPSIS":"575.026","DECAY_DATE":null,"RA_OF_ASC_NODE":"125.1759","COUNTRY_CODE":"US","GP_ID":"205782346","MEAN_MOTION":"14.96710456","RCS_SIZE":"LARGE","PERIOD":"96.211","OBJECT_TYPE":"PAYLOAD","ELEMENT_SET_NO":"999","TLE_LINE2":"2 49174  69.9977 125.1759 0002940 264.0448  96.0375 14.96710456 42624","REF_FRAME":"TEME","NORAD_CAT_ID":"49174","REV_AT_EPOCH":"4262","INCLINATION":"69.9977","LAUNCH_DATE":"2021-09-14","OBJECT_ID":"2021-082AW","BSTAR":"-0.00008093400000","EPHEMERIS_TYPE":"0","ARG_OF_PERICENTER":"264.0448"}];
